STARLINK-36810
1 67898U 26035V   26079.91668981 -.00076989  00000+0 -51972-3 0  9993
2 67898  97.2875  12.9083 0001451 114.1943 249.5512 15.75199750  5568
STARLINK-36878
1 67899U 26035W   26079.77821579  .00323230  00000+0  16140-2 0  9991
2 67899  97.2892  12.7861 0002027 120.8876 239.2592 15.80984246  5594
STARLINK-36361
1 67900U 26035X   26079.33435792  .00278058  00000+0  14058-2 0  9997
2 67900  97.2889  12.3176 0001778 136.8280 223.3128 15.80829310  5528
STARLINK-36336
1 67901U 26035Y   26079.91668981 -.00072687  00000+0 -49046-3 0  9998
2 67901  97.2868  12.9238 0001314  99.8333 297.9085 15.75196665  5617
STARLINK-36876
1 67902U 26035Z   26079.77671012  .00315880  00000+0  15812-2 0  9998
2 67902  97.2888  12.7897 0001742 109.4850 250.6606 15.80950135  5594
STARLINK-36257
1 67903U 26035AA  26079.35525522  .00208026  00000+0  13618-2 0  9992
2 67903  97.2877  12.2923 0001804  94.4720 265.6751 15.75191522  5527
STARLINK-36814
1 67904U 26036A   26079.36000448  .00074388  00000+0  12600-2 0  9992
2 67904  43.0011 186.7900 0002635 285.8456  74.2114 15.50618081  5337
STARLINK-36729
1 67905U 26036B   26079.91668981 -.00027933  00000+0 -47176-3 0  9999
2 67905  43.0005 182.8864 0001407 276.2845 217.1395 15.50593968  5457
STARLINK-36763
1 67906U 26036C   26079.91668981 -.01678180  00000+0 -31382-1 0  9997
2 67906  43.0004 182.8134 0001120 295.7114 227.3267 15.51100317  5458
STARLINK-36742
1 67907U 26036D   26079.91668981 -.00093235  00000+0 -16007-2 0  9997
2 67907  43.0004 182.8636 0001279 274.0669 228.5800 15.50608141  5459
STARLINK-36827
1 67908U 26036E   26079.91668981 -.01936766  00000+0 -38888-1 0  9994
2 67908  43.0004 182.5539 0001228 271.1921 357.1719 15.49049785  5451
STARLINK-36822
1 67909U 26036F   26079.91668981 -.00103580  00000+0 -17810-2 0  9997
2 67909  43.0003 182.8057 0001714 275.6445 250.3946 15.50613156  5456
STARLINK-36847
1 67910U 26036G   26079.91668981 -.00085464  00000+0 -14657-2 0  9995
2 67910  43.0004 182.8522 0001410 299.7355 207.2817 15.50602540  5459
STARLINK-36736
1 67911U 26036H   26079.91668981 -.01902957  00000+0 -41673-1 0  9999
2 67911  42.9999 182.3061 0001762 276.5808  92.0308 15.46522874  5451
STARLINK-36676
1 67912U 26036J   26079.91668981 -.01934532  00000+0 -36344-1 0  9993
2 67912  43.0005 182.4180 0001789 264.9947  57.7201 15.50900554  5459
STARLINK-36690
1 67913U 26036K   26079.91668981 -.00663719  00000+0 -12190-1 0  9992
2 67913  43.0002 182.4037 0001524 279.5343  48.5953 15.50827527  5457
