[{"OBJECT_NAME":"STARLINK-36810","OBJECT_ID":"2026-035V","EPOCH":"2026-03-20T22:00:01.999584","MEAN_MOTION":15.7519975,"ECCENTRICITY":0.00014514,"INCLINATION":97.2875,"RA_OF_ASC_NODE":12.9083,"ARG_OF_PERICENTER":114.1943,"MEAN_ANOMALY":249.5512,"EPHEMERIS_TYPE":0,"CLASSIFICATION_TYPE":"U","NORAD_CAT_ID":67898,"ELEMENT_SET_NO":999,"REV_AT_EPOCH":556,"BSTAR":-0.00051972159,"MEAN_MOTION_DOT":-0.00076989,"MEAN_MOTION_DDOT":0},{"OBJECT_NAME":"STARLINK-36878","OBJECT_ID":"2026-035W","EPOCH":"2026-03-20T18:40:37.844256","MEAN_MOTION":15.80984246,"ECCENTRICITY":0.00020276,"INCLINATION":97.2892,"RA_OF_ASC_NODE":12.7861,"ARG_OF_PERICENTER":120.8876,"MEAN_ANOMALY":239.2592,"EPHEMERIS_TYPE":0,"CLASSIFICATION_TYPE":"U","NORAD_CAT_ID":67899,"ELEMENT_SET_NO":999,"REV_AT_EPOCH":559,"BSTAR":0.0016140338,"MEAN_MOTION_DOT":0.0032323,"MEAN_MOTION_DDOT":0},{"OBJECT_NAME":"STARLINK-36361","OBJECT_ID":"2026-035X","EPOCH":"2026-03-20T08:01:28.524288","MEAN_MOTION":15.8082931,"ECCENTRICITY":0.00017787,"INCLINATION":97.2889,"RA_OF_ASC_NODE":12.3176,"ARG_OF_PERICENTER":136.828,"MEAN_ANOMALY":223.3128,"EPHEMERIS_TYPE":0,"CLASSIFICATION_TYPE":"U","NORAD_CAT_ID":67900,"ELEMENT_SET_NO":999,"REV_AT_EPOCH":552,"BSTAR":0.001405751,"MEAN_MOTION_DOT":0.00278058,"MEAN_MOTION_DDOT":0},{"OBJECT_NAME":"STARLINK-36336","OBJECT_ID":"2026-035Y","EPOCH":"2026-03-20T22:00:01.999584","MEAN_MOTION":15.75196665,"ECCENTRICITY":0.00013148,"INCLINATION":97.2868,"RA_OF_ASC_NODE":12.9238,"ARG_OF_PERICENTER":99.8333,"MEAN_ANOMALY":297.9085,"EPHEMERIS_TYPE":0,"CLASSIFICATION_TYPE":"U","NORAD_CAT_ID":67901,"ELEMENT_SET_NO":999,"REV_AT_EPOCH":561,"BSTAR":-0.00049046097,"MEAN_MOTION_DOT":-0.00072687,"MEAN_MOTION_DDOT":0},{"OBJECT_NAME":"STARLINK-36876","OBJECT_ID":"2026-035Z","EPOCH":"2026-03-20T18:38:27.754368","MEAN_MOTION":15.80950135,"ECCENTRICITY":0.00017425,"INCLINATION":97.2888,"RA_OF_ASC_NODE":12.7897,"ARG_OF_PERICENTER":109.485,"MEAN_ANOMALY":250.6606,"EPHEMERIS_TYPE":0,"CLASSIFICATION_TYPE":"U","NORAD_CAT_ID":67902,"ELEMENT_SET_NO":999,"REV_AT_EPOCH":559,"BSTAR":0.0015811561,"MEAN_MOTION_DOT":0.0031588,"MEAN_MOTION_DDOT":0},{"OBJECT_NAME":"STARLINK-36257","OBJECT_ID":"2026-035AA","EPOCH":"2026-03-20T08:31:34.051008","MEAN_MOTION":15.75191522,"ECCENTRICITY":0.00018042,"INCLINATION":97.2877,"RA_OF_ASC_NODE":12.2923,"ARG_OF_PERICENTER":94.472,"MEAN_ANOMALY":265.6751,"EPHEMERIS_TYPE":0,"CLASSIFICATION_TYPE":"U","NORAD_CAT_ID":67903,"ELEMENT_SET_NO":999,"REV_AT_EPOCH":552,"BSTAR":0.001361755,"MEAN_MOTION_DOT":0.00208026,"MEAN_MOTION_DDOT":0},{"OBJECT_NAME":"STARLINK-36814","OBJECT_ID":"2026-036A","EPOCH":"2026-03-20T08:38:24.387072","MEAN_MOTION":15.50618081,"ECCENTRICITY":0.00026357,"INCLINATION":43.0011,"RA_OF_ASC_NODE":186.79,"ARG_OF_PERICENTER":285.8456,"MEAN_ANOMALY":74.2114,"EPHEMERIS_TYPE":0,"CLASSIFICATION_TYPE":"U","NORAD_CAT_ID":67904,"ELEMENT_SET_NO":999,"REV_AT_EPOCH":533,"BSTAR":0.0012599553,"MEAN_MOTION_DOT":0.00074388,"MEAN_MOTION_DDOT":0},{"OBJECT_NAME":"STARLINK-36729","OBJECT_ID":"2026-036B","EPOCH":"2026-03-20T22:00:01.999584","MEAN_MOTION":15.50593968,"ECCENTRICITY":0.00014076,"INCLINATION":43.0005,"RA_OF_ASC_NODE":182.8864,"ARG_OF_PERICENTER":276.2845,"MEAN_ANOMALY":217.1395,"EPHEMERIS_TYPE":0,"CLASSIFICATION_TYPE":"U","NORAD_CAT_ID":67905,"ELEMENT_SET_NO":999,"REV_AT_EPOCH":545,"BSTAR":-0.00047175787,"MEAN_MOTION_DOT":-0.00027933,"MEAN_MOTION_DDOT":0},{"OBJECT_NAME":"STARLINK-36763","OBJECT_ID":"2026-036C","EPOCH":"2026-03-20T22:00:01.999584","MEAN_MOTION":15.51100317,"ECCENTRICITY":0.00011202,"INCLINATION":43.0004,"RA_OF_ASC_NODE":182.8134,"ARG_OF_PERICENTER":295.7114,"MEAN_ANOMALY":227.3267,"EPHEMERIS_TYPE":0,"CLASSIFICATION_TYPE":"U","NORAD_CAT_ID":67906,"ELEMENT_SET_NO":999,"REV_AT_EPOCH":545,"BSTAR":-0.031381602,"MEAN_MOTION_DOT":-0.0167818,"MEAN_MOTION_DDOT":0},{"OBJECT_NAME":"STARLINK-36742","OBJECT_ID":"2026-036D","EPOCH":"2026-03-20T22:00:01.999584","MEAN_MOTION":15.50608141,"ECCENTRICITY":0.00012792,"INCLINATION":43.0004,"RA_OF_ASC_NODE":182.8636,"ARG_OF_PERICENTER":274.0669,"MEAN_ANOMALY":228.58,"EPHEMERIS_TYPE":0,"CLASSIFICATION_TYPE":"U","NORAD_CAT_ID":67907,"ELEMENT_SET_NO":999,"REV_AT_EPOCH":545,"BSTAR":-0.0016007472,"MEAN_MOTION_DOT":-0.00093235,"MEAN_MOTION_DDOT":0},{"OBJECT_NAME":"STARLINK-36827","OBJECT_ID":"2026-036E","EPOCH":"2026-03-20T22:00:01.999584","MEAN_MOTION":15.49049785,"ECCENTRICITY":0.00012285,"INCLINATION":43.0004,"RA_OF_ASC_NODE":182.5539,"ARG_OF_PERICENTER":271.1921,"MEAN_ANOMALY":357.1719,"EPHEMERIS_TYPE":0,"CLASSIFICATION_TYPE":"U","NORAD_CAT_ID":67908,"ELEMENT_SET_NO":999,"REV_AT_EPOCH":545,"BSTAR":-0.038887707,"MEAN_MOTION_DOT":-0.01936766,"MEAN_MOTION_DDOT":0},{"OBJECT_NAME":"STARLINK-36822","OBJECT_ID":"2026-036F","EPOCH":"2026-03-20T22:00:01.999584","MEAN_MOTION":15.50613156,"ECCENTRICITY":0.00017146,"INCLINATION":43.0003,"RA_OF_ASC_NODE":182.8057,"ARG_OF_PERICENTER":275.6445,"MEAN_ANOMALY":250.3946,"EPHEMERIS_TYPE":0,"CLASSIFICATION_TYPE":"U","NORAD_CAT_ID":67909,"ELEMENT_SET_NO":999,"REV_AT_EPOCH":545,"BSTAR":-0.0017809649,"MEAN_MOTION_DOT":-0.0010358,"MEAN_MOTION_DDOT":0},{"OBJECT_NAME":"STARLINK-36847","OBJECT_ID":"2026-036G","EPOCH":"2026-03-20T22:00:01.999584","MEAN_MOTION":15.5060254,"ECCENTRICITY":0.00014102,"INCLINATION":43.0004,"RA_OF_ASC_NODE":182.8522,"ARG_OF_PERICENTER":299.7355,"MEAN_ANOMALY":207.2817,"EPHEMERIS_TYPE":0,"CLASSIFICATION_TYPE":"U","NORAD_CAT_ID":67910,"ELEMENT_SET_NO":999,"REV_AT_EPOCH":545,"BSTAR":-0.00146567,"MEAN_MOTION_DOT":-0.00085464,"MEAN_MOTION_DDOT":0},{"OBJECT_NAME":"STARLINK-36736","OBJECT_ID":"2026-036H","EPOCH":"2026-03-20T22:00:01.999584","MEAN_MOTION":15.46522874,"ECCENTRICITY":0.00017624,"INCLINATION":42.9999,"RA_OF_ASC_NODE":182.3061,"ARG_OF_PERICENTER":276.5808,"MEAN_ANOMALY":92.0308,"EPHEMERIS_TYPE":0,"CLASSIFICATION_TYPE":"U","NORAD_CAT_ID":67911,"ELEMENT_SET_NO":999,"REV_AT_EPOCH":545,"BSTAR":-0.041672517,"MEAN_MOTION_DOT":-0.01902957,"MEAN_MOTION_DDOT":0},{"OBJECT_NAME":"STARLINK-36676","OBJECT_ID":"2026-036J","EPOCH":"2026-03-20T22:00:01.999584","MEAN_MOTION":15.50900554,"ECCENTRICITY":0.00017892,"INCLINATION":43.0005,"RA_OF_ASC_NODE":182.418,"ARG_OF_PERICENTER":264.9947,"MEAN_ANOMALY":57.7201,"EPHEMERIS_TYPE":0,"CLASSIFICATION_TYPE":"U","NORAD_CAT_ID":67912,"ELEMENT_SET_NO":999,"REV_AT_EPOCH":545,"BSTAR":-0.03634355,"MEAN_MOTION_DOT":-0.01934532,"MEAN_MOTION_DDOT":0},{"OBJECT_NAME":"STARLINK-36690","OBJECT_ID":"2026-036K","EPOCH":"2026-03-20T22:00:01.999584","MEAN_MOTION":15.50827527,"ECCENTRICITY":0.00015248,"INCLINATION":43.0002,"RA_OF_ASC_NODE":182.4037,"ARG_OF_PERICENTER":279.5343,"MEAN_ANOMALY":48.5953,"EPHEMERIS_TYPE":0,"CLASSIFICATION_TYPE":"U","NORAD_CAT_ID":67913,"ELEMENT_SET_NO":999,"REV_AT_EPOCH":545,"BSTAR":-0.01219011,"MEAN_MOTION_DOT":-0.00663719,"MEAN_MOTION_DDOT":0}]
